STARLINK-11253 [DTC]    
1 60935U 24155M   26081.83983195  .00002852  00000+0  28365-4 0  9997
2 60935  53.1580 276.7242 0001040  74.9043 285.2090 15.69733653 90462
STARLINK-11241 [DTC]    
1 60936U 24155N   26081.83493873 -.00000870  00000+0 -23275-5 0  9993
2 60936  53.1591 276.6932 0000874 115.8352 244.2757 15.69711524 90460
STARLINK-32259          
1 60937U 24155P   26081.65544411 -.00002118  00000+0 -59428-4 0  9994
2 60937  53.1603  69.6099 0001218  82.9758 277.1381 15.30179056 88322
STARLINK-32262          
1 60938U 24155Q   26081.91668981  .00124215  00000+0  15373-2 0  9993
2 60938  53.1512  47.8698 0006864  93.0637  49.1439 15.59194179  5858
STARLINK-32258          
1 60939U 24155R   26081.24983019 -.00001991  00000+0 -55133-4 0  9999
2 60939  53.1612  71.3432 0001385  81.6776 278.4382 15.30180219 88212
STARLINK-32251          
1 60940U 24155S   26081.25615584 -.00004156  00000+0 -12833-3 0  9996
2 60940  53.1606  71.3827 0001726  79.7571 280.3625 15.30185604 88265
STARLINK-32224          
1 60941U 24155T   26081.25298936 -.00002514  00000+0 -72780-4 0  9999
2 60941  53.1601  71.3577 0001244  79.3194 280.7947 15.30198653 88275
STARLINK-32184          
1 60942U 24155U   26081.26038461 -.00002349  00000+0 -67257-4 0  9995
2 60942  53.1612  71.4104 0001202  78.6378 281.4758 15.30178668 88211
STARLINK-32288          
1 60943U 24155V   26081.66177145 -.00002027  00000+0 -56369-4 0  9998
2 60943  53.1597  69.6409 0000829  66.9764 293.1324 15.30178995 88272
STARLINK-32276          
1 60944U 24155W   26081.65860907 -.00003183  00000+0 -95417-4 0  9994
2 60944  53.1604  69.6236 0001601  77.5923 282.5257 15.30185906 88372
STARLINK-11289 [DTC]    
1 60991U 24158B   26081.71733621  .00001148  00000+0  14344-4 0  9995
2 60991  53.1564 216.8296 0001361  86.6461 273.4713 15.69701951 89645
STARLINK-11282 [DTC]    
1 60992U 24158C   26081.79571689  .00000630  00000+0  10055-4 0  9998
2 60992  53.1592 216.6178 0000694  47.8519 312.2558 15.69710224 89658
STARLINK-11283 [DTC]    
1 60993U 24158D   26081.83005999 -.00001246  00000+0 -54303-5 0  9991
2 60993  53.1592 216.8435 0000973  56.9680 303.1431 15.69713153 89650
STARLINK-11267 [DTC]    
1 60994U 24158E   26081.76148847  .00003997  00000+0  37843-4 0  9996
2 60994  53.1581 217.1262 0000877 118.6824 241.4282 15.69700259 89640
STARLINK-11269 [DTC]    
1 60995U 24158F   26081.75658001 -.00000296  00000+0  24211-5 0  9990
2 60995  53.1581 217.0895 0001484 118.9618 241.1549 15.69703846 89638
STARLINK-11281 [DTC]    
1 60996U 24158G   26081.75167455 -.00002260  00000+0 -13815-4 0  9990
2 60996  53.1583 217.0542 0000670  78.9582 281.1511 15.69702971 89632
