[{"OBJECT_NAME":"STARLINK-11253 [DTC]","OBJECT_ID":"2024-155M","EPOCH":"2026-03-22T20:09:21.480480","MEAN_MOTION":15.69733653,"ECCENTRICITY":0.00010406,"INCLINATION":53.158,"RA_OF_ASC_NODE":276.7242,"ARG_OF_PERICENTER":74.9043,"MEAN_ANOMALY":285.209,"EPHEMERIS_TYPE":0,"CLASSIFICATION_TYPE":"U","NORAD_CAT_ID":60935,"ELEMENT_SET_NO":999,"REV_AT_EPOCH":9046,"BSTAR":2.8364716e-5,"MEAN_MOTION_DOT":2.852e-5,"MEAN_MOTION_DDOT":0},{"OBJECT_NAME":"STARLINK-11241 [DTC]","OBJECT_ID":"2024-155N","EPOCH":"2026-03-22T20:02:18.706272","MEAN_MOTION":15.69711524,"ECCENTRICITY":8.748e-5,"INCLINATION":53.1591,"RA_OF_ASC_NODE":276.6932,"ARG_OF_PERICENTER":115.8352,"MEAN_ANOMALY":244.2757,"EPHEMERIS_TYPE":0,"CLASSIFICATION_TYPE":"U","NORAD_CAT_ID":60936,"ELEMENT_SET_NO":999,"REV_AT_EPOCH":9046,"BSTAR":-2.32747e-6,"MEAN_MOTION_DOT":-8.7e-6,"MEAN_MOTION_DDOT":0},{"OBJECT_NAME":"STARLINK-32259","OBJECT_ID":"2024-155P","EPOCH":"2026-03-22T15:43:50.371104","MEAN_MOTION":15.30179056,"ECCENTRICITY":0.00012186,"INCLINATION":53.1603,"RA_OF_ASC_NODE":69.6099,"ARG_OF_PERICENTER":82.9758,"MEAN_ANOMALY":277.1381,"EPHEMERIS_TYPE":0,"CLASSIFICATION_TYPE":"U","NORAD_CAT_ID":60937,"ELEMENT_SET_NO":999,"REV_AT_EPOCH":8832,"BSTAR":-5.9428269e-5,"MEAN_MOTION_DOT":-2.118e-5,"MEAN_MOTION_DDOT":0},{"OBJECT_NAME":"STARLINK-32262","OBJECT_ID":"2024-155Q","EPOCH":"2026-03-22T22:00:01.999584","MEAN_MOTION":15.59194179,"ECCENTRICITY":0.00068645,"INCLINATION":53.1512,"RA_OF_ASC_NODE":47.8698,"ARG_OF_PERICENTER":93.0637,"MEAN_ANOMALY":49.1439,"EPHEMERIS_TYPE":0,"CLASSIFICATION_TYPE":"U","NORAD_CAT_ID":60938,"ELEMENT_SET_NO":999,"REV_AT_EPOCH":585,"BSTAR":0.0015372566,"MEAN_MOTION_DOT":0.00124215,"MEAN_MOTION_DDOT":0},{"OBJECT_NAME":"STARLINK-32258","OBJECT_ID":"2024-155R","EPOCH":"2026-03-22T05:59:45.328416","MEAN_MOTION":15.30180219,"ECCENTRICITY":0.00013858,"INCLINATION":53.1612,"RA_OF_ASC_NODE":71.3432,"ARG_OF_PERICENTER":81.6776,"MEAN_ANOMALY":278.4382,"EPHEMERIS_TYPE":0,"CLASSIFICATION_TYPE":"U","NORAD_CAT_ID":60939,"ELEMENT_SET_NO":999,"REV_AT_EPOCH":8821,"BSTAR":-5.5133475e-5,"MEAN_MOTION_DOT":-1.991e-5,"MEAN_MOTION_DDOT":0},{"OBJECT_NAME":"STARLINK-32251","OBJECT_ID":"2024-155S","EPOCH":"2026-03-22T06:08:51.864576","MEAN_MOTION":15.30185604,"ECCENTRICITY":0.00017268,"INCLINATION":53.1606,"RA_OF_ASC_NODE":71.3827,"ARG_OF_PERICENTER":79.7571,"MEAN_ANOMALY":280.3625,"EPHEMERIS_TYPE":0,"CLASSIFICATION_TYPE":"U","NORAD_CAT_ID":60940,"ELEMENT_SET_NO":999,"REV_AT_EPOCH":8826,"BSTAR":-0.00012832919,"MEAN_MOTION_DOT":-4.156e-5,"MEAN_MOTION_DDOT":0},{"OBJECT_NAME":"STARLINK-32224","OBJECT_ID":"2024-155T","EPOCH":"2026-03-22T06:04:18.280704","MEAN_MOTION":15.30198653,"ECCENTRICITY":0.00012445,"INCLINATION":53.1601,"RA_OF_ASC_NODE":71.3577,"ARG_OF_PERICENTER":79.3194,"MEAN_ANOMALY":280.7947,"EPHEMERIS_TYPE":0,"CLASSIFICATION_TYPE":"U","NORAD_CAT_ID":60941,"ELEMENT_SET_NO":999,"REV_AT_EPOCH":8827,"BSTAR":-7.2779962e-5,"MEAN_MOTION_DOT":-2.514e-5,"MEAN_MOTION_DDOT":0},{"OBJECT_NAME":"STARLINK-32184","OBJECT_ID":"2024-155U","EPOCH":"2026-03-22T06:14:57.230304","MEAN_MOTION":15.30178668,"ECCENTRICITY":0.00012026,"INCLINATION":53.1612,"RA_OF_ASC_NODE":71.4104,"ARG_OF_PERICENTER":78.6378,"MEAN_ANOMALY":281.4758,"EPHEMERIS_TYPE":0,"CLASSIFICATION_TYPE":"U","NORAD_CAT_ID":60942,"ELEMENT_SET_NO":999,"REV_AT_EPOCH":8821,"BSTAR":-6.7256572e-5,"MEAN_MOTION_DOT":-2.349e-5,"MEAN_MOTION_DDOT":0},{"OBJECT_NAME":"STARLINK-32288","OBJECT_ID":"2024-155V","EPOCH":"2026-03-22T15:52:57.053280","MEAN_MOTION":15.30178995,"ECCENTRICITY":8.297e-5,"INCLINATION":53.1597,"RA_OF_ASC_NODE":69.6409,"ARG_OF_PERICENTER":66.9764,"MEAN_ANOMALY":293.1324,"EPHEMERIS_TYPE":0,"CLASSIFICATION_TYPE":"U","NORAD_CAT_ID":60943,"ELEMENT_SET_NO":999,"REV_AT_EPOCH":8827,"BSTAR":-5.636886e-5,"MEAN_MOTION_DOT":-2.027e-5,"MEAN_MOTION_DDOT":0},{"OBJECT_NAME":"STARLINK-32276","OBJECT_ID":"2024-155W","EPOCH":"2026-03-22T15:48:23.823648","MEAN_MOTION":15.30185906,"ECCENTRICITY":0.00016014,"INCLINATION":53.1604,"RA_OF_ASC_NODE":69.6236,"ARG_OF_PERICENTER":77.5923,"MEAN_ANOMALY":282.5257,"EPHEMERIS_TYPE":0,"CLASSIFICATION_TYPE":"U","NORAD_CAT_ID":60944,"ELEMENT_SET_NO":999,"REV_AT_EPOCH":8837,"BSTAR":-9.5416631e-5,"MEAN_MOTION_DOT":-3.183e-5,"MEAN_MOTION_DDOT":0},{"OBJECT_NAME":"STARLINK-11289 [DTC]","OBJECT_ID":"2024-158B","EPOCH":"2026-03-22T17:12:57.848544","MEAN_MOTION":15.69701951,"ECCENTRICITY":0.00013619,"INCLINATION":53.1564,"RA_OF_ASC_NODE":216.8296,"ARG_OF_PERICENTER":86.6461,"MEAN_ANOMALY":273.4713,"EPHEMERIS_TYPE":0,"CLASSIFICATION_TYPE":"U","NORAD_CAT_ID":60991,"ELEMENT_SET_NO":999,"REV_AT_EPOCH":8964,"BSTAR":1.4344142e-5,"MEAN_MOTION_DOT":1.148e-5,"MEAN_MOTION_DDOT":0},{"OBJECT_NAME":"STARLINK-11282 [DTC]","OBJECT_ID":"2024-158C","EPOCH":"2026-03-22T19:05:49.939296","MEAN_MOTION":15.69710224,"ECCENTRICITY":6.944e-5,"INCLINATION":53.1592,"RA_OF_ASC_NODE":216.6178,"ARG_OF_PERICENTER":47.8519,"MEAN_ANOMALY":312.2558,"EPHEMERIS_TYPE":0,"CLASSIFICATION_TYPE":"U","NORAD_CAT_ID":60992,"ELEMENT_SET_NO":999,"REV_AT_EPOCH":8965,"BSTAR":1.0055002e-5,"MEAN_MOTION_DOT":6.3e-6,"MEAN_MOTION_DDOT":0},{"OBJECT_NAME":"STARLINK-11283 [DTC]","OBJECT_ID":"2024-158D","EPOCH":"2026-03-22T19:55:17.183136","MEAN_MOTION":15.69713153,"ECCENTRICITY":9.736e-5,"INCLINATION":53.1592,"RA_OF_ASC_NODE":216.8435,"ARG_OF_PERICENTER":56.968,"MEAN_ANOMALY":303.1431,"EPHEMERIS_TYPE":0,"CLASSIFICATION_TYPE":"U","NORAD_CAT_ID":60993,"ELEMENT_SET_NO":999,"REV_AT_EPOCH":8965,"BSTAR":-5.430278e-6,"MEAN_MOTION_DOT":-1.246e-5,"MEAN_MOTION_DDOT":0},{"OBJECT_NAME":"STARLINK-11267 [DTC]","OBJECT_ID":"2024-158E","EPOCH":"2026-03-22T18:16:32.603808","MEAN_MOTION":15.69700259,"ECCENTRICITY":8.773e-5,"INCLINATION":53.1581,"RA_OF_ASC_NODE":217.1262,"ARG_OF_PERICENTER":118.6824,"MEAN_ANOMALY":241.4282,"EPHEMERIS_TYPE":0,"CLASSIFICATION_TYPE":"U","NORAD_CAT_ID":60994,"ELEMENT_SET_NO":999,"REV_AT_EPOCH":8964,"BSTAR":3.7843136e-5,"MEAN_MOTION_DOT":3.997e-5,"MEAN_MOTION_DDOT":0},{"OBJECT_NAME":"STARLINK-11269 [DTC]","OBJECT_ID":"2024-158F","EPOCH":"2026-03-22T18:09:28.512864","MEAN_MOTION":15.69703846,"ECCENTRICITY":0.00014844,"INCLINATION":53.1581,"RA_OF_ASC_NODE":217.0895,"ARG_OF_PERICENTER":118.9618,"MEAN_ANOMALY":241.1549,"EPHEMERIS_TYPE":0,"CLASSIFICATION_TYPE":"U","NORAD_CAT_ID":60995,"ELEMENT_SET_NO":999,"REV_AT_EPOCH":8963,"BSTAR":2.42108e-6,"MEAN_MOTION_DOT":-2.96e-6,"MEAN_MOTION_DDOT":0},{"OBJECT_NAME":"STARLINK-11281 [DTC]","OBJECT_ID":"2024-158G","EPOCH":"2026-03-22T18:02:24.681120","MEAN_MOTION":15.69702971,"ECCENTRICITY":6.707e-5,"INCLINATION":53.1583,"RA_OF_ASC_NODE":217.0542,"ARG_OF_PERICENTER":78.9582,"MEAN_ANOMALY":281.1511,"EPHEMERIS_TYPE":0,"CLASSIFICATION_TYPE":"U","NORAD_CAT_ID":60996,"ELEMENT_SET_NO":999,"REV_AT_EPOCH":8963,"BSTAR":-1.3815148e-5,"MEAN_MOTION_DOT":-2.26e-5,"MEAN_MOTION_DDOT":0}]
